[{"OBJECT_NAME":"COSMOS 2251 DEB","OBJECT_ID":"1993-036AXJ","EPOCH":"2026-03-04T06:43:39.368928","MEAN_MOTION":15.02006408,"ECCENTRICITY":0.00055107,"INCLINATION":74.0336,"RA_OF_ASC_NODE":168.6889,"ARG_OF_PERICENTER":251.0272,"MEAN_ANOMALY":109.0319,"EPHEMERIS_TYPE":0,"CLASSIFICATION_TYPE":"U","NORAD_CAT_ID":36047,"ELEMENT_SET_NO":999,"REV_AT_EPOCH":67161,"BSTAR":0.004934883,"MEAN_MOTION_DOT":0.00065288,"MEAN_MOTION_DDOT":0},{"OBJECT_NAME":"COSMOS 2251 DEB","OBJECT_ID":"1993-036AXK","EPOCH":"2026-03-04T06:48:27.900000","MEAN_MOTION":14.38006534,"ECCENTRICITY":0.00263349,"INCLINATION":74.057,"RA_OF_ASC_NODE":149.3098,"ARG_OF_PERICENTER":185.6508,"MEAN_ANOMALY":232.4199,"EPHEMERIS_TYPE":0,"CLASSIFICATION_TYPE":"U","NORAD_CAT_ID":36048,"ELEMENT_SET_NO":999,"REV_AT_EPOCH":86674,"BSTAR":0.00032380663,"MEAN_MOTION_DOT":9.57e-6,"MEAN_MOTION_DDOT":0},{"OBJECT_NAME":"COSMOS 2251 DEB","OBJECT_ID":"1993-036AXL","EPOCH":"2026-03-01T17:00:54.535392","MEAN_MOTION":14.63245084,"ECCENTRICITY":0.00086023,"INCLINATION":74.0322,"RA_OF_ASC_NODE":327.7882,"ARG_OF_PERICENTER":29.6008,"MEAN_ANOMALY":330.5645,"EPHEMERIS_TYPE":0,"CLASSIFICATION_TYPE":"U","NORAD_CAT_ID":36049,"ELEMENT_SET_NO":999,"REV_AT_EPOCH":86519,"BSTAR":0.001170616,"MEAN_MOTION_DOT":6.012e-5,"MEAN_MOTION_DDOT":0},{"OBJECT_NAME":"COSMOS 2251 DEB","OBJECT_ID":"1993-036AXM","EPOCH":"2026-03-04T13:35:19.033728","MEAN_MOTION":15.02674418,"ECCENTRICITY":0.0082656,"INCLINATION":74.0326,"RA_OF_ASC_NODE":27.1576,"ARG_OF_PERICENTER":85.1824,"MEAN_ANOMALY":275.8796,"EPHEMERIS_TYPE":0,"CLASSIFICATION_TYPE":"U","NORAD_CAT_ID":36050,"ELEMENT_SET_NO":999,"REV_AT_EPOCH":68263,"BSTAR":0.00093346,"MEAN_MOTION_DOT":0.000134,"MEAN_MOTION_DDOT":0},{"OBJECT_NAME":"COSMOS 2251 DEB","OBJECT_ID":"1993-036AXQ","EPOCH":"2026-03-04T18:57:11.008800","MEAN_MOTION":14.58573114,"ECCENTRICITY":0.0033376,"INCLINATION":73.8738,"RA_OF_ASC_NODE":355.0794,"ARG_OF_PERICENTER":283.7678,"MEAN_ANOMALY":75.9772,"EPHEMERIS_TYPE":0,"CLASSIFICATION_TYPE":"U","NORAD_CAT_ID":36053,"ELEMENT_SET_NO":999,"REV_AT_EPOCH":88640,"BSTAR":0.0023484,"MEAN_MOTION_DOT":0.00010996,"MEAN_MOTION_DDOT":0},{"OBJECT_NAME":"COSMOS 2251 DEB","OBJECT_ID":"1993-036AXV","EPOCH":"2026-03-03T19:30:04.038336","MEAN_MOTION":14.59188824,"ECCENTRICITY":0.00450565,"INCLINATION":74.0198,"RA_OF_ASC_NODE":238.8756,"ARG_OF_PERICENTER":350.8075,"MEAN_ANOMALY":9.226,"EPHEMERIS_TYPE":0,"CLASSIFICATION_TYPE":"U","NORAD_CAT_ID":36058,"ELEMENT_SET_NO":999,"REV_AT_EPOCH":67293,"BSTAR":0.00061758824,"MEAN_MOTION_DOT":2.923e-5,"MEAN_MOTION_DDOT":0},{"OBJECT_NAME":"COSMOS 2251 DEB","OBJECT_ID":"1993-036AXX","EPOCH":"2026-03-03T09:21:44.727264","MEAN_MOTION":14.42212841,"ECCENTRICITY":0.00146997,"INCLINATION":74.0272,"RA_OF_ASC_NODE":84.9788,"ARG_OF_PERICENTER":174.6913,"MEAN_ANOMALY":185.4402,"EPHEMERIS_TYPE":0,"CLASSIFICATION_TYPE":"U","NORAD_CAT_ID":36060,"ELEMENT_SET_NO":999,"REV_AT_EPOCH":86172,"BSTAR":0.000356248,"MEAN_MOTION_DOT":1.149e-5,"MEAN_MOTION_DDOT":0},{"OBJECT_NAME":"COSMOS 2251 DEB","OBJECT_ID":"1993-036AXY","EPOCH":"2026-02-24T20:17:16.329696","MEAN_MOTION":14.33857823,"ECCENTRICITY":0.00393139,"INCLINATION":74.0213,"RA_OF_ASC_NODE":224.0995,"ARG_OF_PERICENTER":294.0818,"MEAN_ANOMALY":65.6222,"EPHEMERIS_TYPE":0,"CLASSIFICATION_TYPE":"U","NORAD_CAT_ID":36061,"ELEMENT_SET_NO":999,"REV_AT_EPOCH":66166,"BSTAR":0.00027068121,"MEAN_MOTION_DOT":7.34e-6,"MEAN_MOTION_DDOT":0},{"OBJECT_NAME":"COSMOS 2251 DEB","OBJECT_ID":"1993-036AYL","EPOCH":"2026-03-01T23:48:23.381856","MEAN_MOTION":14.35071137,"ECCENTRICITY":0.00256723,"INCLINATION":74.033,"RA_OF_ASC_NODE":177.2671,"ARG_OF_PERICENTER":231.4539,"MEAN_ANOMALY":128.4312,"EPHEMERIS_TYPE":0,"CLASSIFICATION_TYPE":"U","NORAD_CAT_ID":36073,"ELEMENT_SET_NO":999,"REV_AT_EPOCH":71344,"BSTAR":0.00026500545,"MEAN_MOTION_DOT":7.32e-6,"MEAN_MOTION_DDOT":0},{"OBJECT_NAME":"COSMOS 2251 DEB","OBJECT_ID":"1993-036AYM","EPOCH":"2026-03-02T18:48:01.231776","MEAN_MOTION":14.44433767,"ECCENTRICITY":0.00451051,"INCLINATION":73.9913,"RA_OF_ASC_NODE":191.1898,"ARG_OF_PERICENTER":266.5038,"MEAN_ANOMALY":93.0959,"EPHEMERIS_TYPE":0,"CLASSIFICATION_TYPE":"U","NORAD_CAT_ID":36074,"ELEMENT_SET_NO":999,"REV_AT_EPOCH":87065,"BSTAR":0.0013516007,"MEAN_MOTION_DOT":4.695e-5,"MEAN_MOTION_DDOT":0},{"OBJECT_NAME":"COSMOS 2251 DEB","OBJECT_ID":"1993-036AYT","EPOCH":"2026-03-04T20:00:24.349824","MEAN_MOTION":14.34314166,"ECCENTRICITY":0.008488,"INCLINATION":74.064,"RA_OF_ASC_NODE":123.1331,"ARG_OF_PERICENTER":133.5313,"MEAN_ANOMALY":227.2933,"EPHEMERIS_TYPE":0,"CLASSIFICATION_TYPE":"U","NORAD_CAT_ID":36366,"ELEMENT_SET_NO":999,"REV_AT_EPOCH":87465,"BSTAR":0.0015638,"MEAN_MOTION_DOT":4.552e-5,"MEAN_MOTION_DDOT":0},{"OBJECT_NAME":"COSMOS 2251 DEB","OBJECT_ID":"1993-036AYU","EPOCH":"2026-02-09T22:36:16.665120","MEAN_MOTION":13.8665694,"ECCENTRICITY":0.0260465,"INCLINATION":74.1017,"RA_OF_ASC_NODE":131.5377,"ARG_OF_PERICENTER":191.0318,"MEAN_ANOMALY":168.5033,"EPHEMERIS_TYPE":0,"CLASSIFICATION_TYPE":"U","NORAD_CAT_ID":36367,"ELEMENT_SET_NO":999,"REV_AT_EPOCH":58350,"BSTAR":0.00099798,"MEAN_MOTION_DOT":1.494e-5,"MEAN_MOTION_DDOT":0},{"OBJECT_NAME":"COSMOS 2251 DEB","OBJECT_ID":"1993-036AYW","EPOCH":"2026-03-04T20:05:54.696768","MEAN_MOTION":14.75602519,"ECCENTRICITY":0.0011429,"INCLINATION":74.0282,"RA_OF_ASC_NODE":270.3453,"ARG_OF_PERICENTER":325.6872,"MEAN_ANOMALY":34.3563,"EPHEMERIS_TYPE":0,"CLASSIFICATION_TYPE":"U","NORAD_CAT_ID":36369,"ELEMENT_SET_NO":999,"REV_AT_EPOCH":87132,"BSTAR":0.001831,"MEAN_MOTION_DOT":0.00012496,"MEAN_MOTION_DDOT":0},{"OBJECT_NAME":"COSMOS 2251 DEB","OBJECT_ID":"1993-036AYY","EPOCH":"2026-02-26T13:22:53.724864","MEAN_MOTION":14.72714315,"ECCENTRICITY":0.0006486,"INCLINATION":74.0146,"RA_OF_ASC_NODE":13.9369,"ARG_OF_PERICENTER":17.5795,"MEAN_ANOMALY":342.56,"EPHEMERIS_TYPE":0,"CLASSIFICATION_TYPE":"U","NORAD_CAT_ID":36371,"ELEMENT_SET_NO":999,"REV_AT_EPOCH":72560,"BSTAR":0.0022282,"MEAN_MOTION_DOT":0.00014222,"MEAN_MOTION_DDOT":0},{"OBJECT_NAME":"COSMOS 2251 DEB","OBJECT_ID":"1993-036AZG","EPOCH":"2026-02-28T23:31:52.079232","MEAN_MOTION":14.36230008,"ECCENTRICITY":0.0047565,"INCLINATION":74.0136,"RA_OF_ASC_NODE":162.9446,"ARG_OF_PERICENTER":273.8752,"MEAN_ANOMALY":206.262,"EPHEMERIS_TYPE":0,"CLASSIFICATION_TYPE":"U","NORAD_CAT_ID":36379,"ELEMENT_SET_NO":999,"REV_AT_EPOCH":65951,"BSTAR":0.00027962,"MEAN_MOTION_DOT":8.0e-6,"MEAN_MOTION_DDOT":0},{"OBJECT_NAME":"COSMOS 2251 DEB","OBJECT_ID":"1993-036AZN","EPOCH":"2026-03-03T19:05:43.022112","MEAN_MOTION":14.74705956,"ECCENTRICITY":0.01367218,"INCLINATION":73.9722,"RA_OF_ASC_NODE":355.7592,"ARG_OF_PERICENTER":151.9961,"MEAN_ANOMALY":208.8659,"EPHEMERIS_TYPE":0,"CLASSIFICATION_TYPE":"U","NORAD_CAT_ID":36385,"ELEMENT_SET_NO":999,"REV_AT_EPOCH":86296,"BSTAR":0.0017015894,"MEAN_MOTION_DOT":0.00013218,"MEAN_MOTION_DDOT":0}]
