COSMOS 2251 DEB         
1 36047U 93036AXJ 26063.28031677  .00065288  00000+0  49349-2 0  9991
2 36047  74.0336 168.6889 0005510 251.0272 109.0319 15.02006408671611
COSMOS 2251 DEB         
1 36048U 93036AXK 26063.28365625  .00000957  00000+0  32381-3 0  9996
2 36048  74.0570 149.3098 0026334 185.6508 232.4199 14.38006534866746
COSMOS 2251 DEB         
1 36049U 93036AXL 26060.70896453  .00006012  00000+0  11706-2 0  9994
2 36049  74.0322 327.7882 0008602  29.6008 330.5645 14.63245084865192
COSMOS 2251 DEB         
1 36050U 93036AXM 26063.56619252  .00013400  00000+0  93346-3 0  9993
2 36050  74.0326  27.1576 0082656  85.1824 275.8796 15.02674418682638
COSMOS 2251 DEB         
1 36053U 93036AXQ 26063.78971075  .00010996  00000+0  23484-2 0  9996
2 36053  73.8738 355.0794 0033376 283.7678  75.9772 14.58573114886403
COSMOS 2251 DEB         
1 36058U 93036AXV 26062.81254674  .00002923  00000+0  61759-3 0  9992
2 36058  74.0198 238.8756 0045056 350.8075   9.2260 14.59188824672936
COSMOS 2251 DEB         
1 36060U 93036AXX 26062.39010101  .00001149  00000+0  35625-3 0  9995
2 36060  74.0272  84.9788 0014699 174.6913 185.4402 14.42212841861720
COSMOS 2251 DEB         
1 36061U 93036AXY 26055.84532789  .00000734  00000+0  27068-3 0  9990
2 36061  74.0213 224.0995 0039313 294.0818  65.6222 14.33857823661669
COSMOS 2251 DEB         
1 36073U 93036AYL 26060.99193729  .00000732  00000+0  26501-3 0  9991
2 36073  74.0330 177.2671 0025672 231.4539 128.4312 14.35071137713440
COSMOS 2251 DEB         
1 36074U 93036AYM 26061.78334759  .00004695  00000+0  13516-2 0  9993
2 36074  73.9913 191.1898 0045105 266.5038  93.0959 14.44433767870650
COSMOS 2251 DEB         
1 36366U 93036AYT 26063.83361516  .00004552  00000+0  15638-2 0  9995
2 36366  74.0640 123.1331 0084880 133.5313 227.2933 14.34314166874659
COSMOS 2251 DEB         
1 36367U 93036AYU 26040.94185955  .00001494  00000+0  99798-3 0  9996
2 36367  74.1017 131.5377 0260465 191.0318 168.5033 13.86656940583505
COSMOS 2251 DEB         
1 36369U 93036AYW 26063.83743862  .00012496  00000+0  18310-2 0  9992
2 36369  74.0282 270.3453 0011429 325.6872  34.3563 14.75602519871321
COSMOS 2251 DEB         
1 36371U 93036AYY 26057.55756626  .00014222  00000+0  22282-2 0  9991
2 36371  74.0146  13.9369 0006486  17.5795 342.5600 14.72714315725608
COSMOS 2251 DEB         
1 36379U 93036AZG 26059.98046388  .00000800  00000+0  27962-3 0  9993
2 36379  74.0136 162.9446 0047565 273.8752 206.2620 14.36230008659515
COSMOS 2251 DEB         
1 36385U 93036AZN 26062.79563683  .00013218  00000+0  17016-2 0  9990
2 36385  73.9722 355.7592 0136721 151.9961 208.8659 14.74705956862962
